CCSDS_OMM_VERS = 2.0
CREATION_DATE  = 
ORIGINATOR     = 

OBJECT_NAME    = UNKNOWN
OBJECT_ID      = 
CENTER_NAME    = EARTH
REF_FRAME      = TEME
TIME_SYSTEM    = UTC
MEAN_ELEMENT_THEORY = SGP/SGP4

EPOCH          = 2025-11-02T02:46:19.122240
MEAN_MOTION    = 14.86280166
ECCENTRICITY   = .00139379
INCLINATION    = 99.1860
RA_OF_ASC_NODE = 79.4751
ARG_OF_PERICENTER = 312.3229
MEAN_ANOMALY   = 47.6801

EPHEMERIS_TYPE = 0
CLASSIFICATION_TYPE = U
NORAD_CAT_ID   = 270130
ELEMENT_SET_NO = 999
REV_AT_EPOCH   = 30929
BSTAR          = .1064119E-1
MEAN_MOTION_DOT = .95004E-3
MEAN_MOTION_DDOT = 0

CCSDS_OMM_VERS = 2.0
CREATION_DATE  = 
ORIGINATOR     = 

OBJECT_NAME    = UNKNOWN
OBJECT_ID      = 
CENTER_NAME    = EARTH
REF_FRAME      = TEME
TIME_SYSTEM    = UTC
MEAN_ELEMENT_THEORY = SGP/SGP4

EPOCH          = 2025-10-31T01:13:23.617056
MEAN_MOTION    = 4.52461117
ECCENTRICITY   = .54323536
INCLINATION    = 63.1160
RA_OF_ASC_NODE = 170.8221
ARG_OF_PERICENTER = 347.1422
MEAN_ANOMALY   = 3.3063

EPHEMERIS_TYPE = 0
CLASSIFICATION_TYPE = U
NORAD_CAT_ID   = 270131
ELEMENT_SET_NO = 999
REV_AT_EPOCH   = 9798
BSTAR          = .90631205E-3
MEAN_MOTION_DOT = .135E-5
MEAN_MOTION_DDOT = 0

CCSDS_OMM_VERS = 2.0
CREATION_DATE  = 
ORIGINATOR     = 

OBJECT_NAME    = UNKNOWN
OBJECT_ID      = 
CENTER_NAME    = EARTH
REF_FRAME      = TEME
TIME_SYSTEM    = UTC
MEAN_ELEMENT_THEORY = SGP/SGP4

EPOCH          = 2025-10-29T23:21:06.599520
MEAN_MOTION    = 12.79505868
ECCENTRICITY   = .03847797
INCLINATION    = 63.2048
RA_OF_ASC_NODE = 182.6089
ARG_OF_PERICENTER = 17.0981
MEAN_ANOMALY   = 344.2566

EPHEMERIS_TYPE = 0
CLASSIFICATION_TYPE = U
NORAD_CAT_ID   = 270133
ELEMENT_SET_NO = 999
REV_AT_EPOCH   = 27679
BSTAR          = .19219965E-2
MEAN_MOTION_DOT = .517E-5
MEAN_MOTION_DDOT = 0

CCSDS_OMM_VERS = 2.0
CREATION_DATE  = 
ORIGINATOR     = 

OBJECT_NAME    = UNKNOWN
OBJECT_ID      = 
CENTER_NAME    = EARTH
REF_FRAME      = TEME
TIME_SYSTEM    = UTC
MEAN_ELEMENT_THEORY = SGP/SGP4

EPOCH          = 2025-10-11T09:35:52.736352
MEAN_MOTION    = 12.29532389
ECCENTRICITY   = .06795291
INCLINATION    = 66.0609
RA_OF_ASC_NODE = 182.4460
ARG_OF_PERICENTER = 245.6702
MEAN_ANOMALY   = 107.1910

EPHEMERIS_TYPE = 0
CLASSIFICATION_TYPE = U
NORAD_CAT_ID   = 270134
ELEMENT_SET_NO = 999
REV_AT_EPOCH   = 26360
BSTAR          = -.7824194E-5
MEAN_MOTION_DOT = -.56E-6
MEAN_MOTION_DDOT = 0

CCSDS_OMM_VERS = 2.0
CREATION_DATE  = 
ORIGINATOR     = 

OBJECT_NAME    = UNKNOWN
OBJECT_ID      = 
CENTER_NAME    = EARTH
REF_FRAME      = TEME
TIME_SYSTEM    = UTC
MEAN_ELEMENT_THEORY = SGP/SGP4

EPOCH          = 2025-10-31T13:55:17.287680
MEAN_MOTION    = 13.04597058
ECCENTRICITY   = .02598731
INCLINATION    = 63.5739
RA_OF_ASC_NODE = 40.7710
ARG_OF_PERICENTER = 335.0424
MEAN_ANOMALY   = 23.8198

EPHEMERIS_TYPE = 0
CLASSIFICATION_TYPE = U
NORAD_CAT_ID   = 270135
ELEMENT_SET_NO = 999
REV_AT_EPOCH   = 28213
BSTAR          = .20438216E-2
MEAN_MOTION_DOT = .693E-5
MEAN_MOTION_DDOT = 0

CCSDS_OMM_VERS = 2.0
CREATION_DATE  = 
ORIGINATOR     = 

OBJECT_NAME    = UNKNOWN
OBJECT_ID      = 
CENTER_NAME    = EARTH
REF_FRAME      = TEME
TIME_SYSTEM    = UTC
MEAN_ELEMENT_THEORY = SGP/SGP4

EPOCH          = 2025-10-31T20:46:36.825600
MEAN_MOTION    = 13.02350602
ECCENTRICITY   = .0028658
INCLINATION    = 90.2469
RA_OF_ASC_NODE = 0.0907
ARG_OF_PERICENTER = 203.9624
MEAN_ANOMALY   = 156.0167

EPHEMERIS_TYPE = 0
CLASSIFICATION_TYPE = U
NORAD_CAT_ID   = 270136
ELEMENT_SET_NO = 999
REV_AT_EPOCH   = 28131
BSTAR          = .45797122E-3
MEAN_MOTION_DOT = .15E-5
MEAN_MOTION_DDOT = 0

CCSDS_OMM_VERS = 2.0
CREATION_DATE  = 
ORIGINATOR     = 

OBJECT_NAME    = UNKNOWN
OBJECT_ID      = 
CENTER_NAME    = EARTH
REF_FRAME      = TEME
TIME_SYSTEM    = UTC
MEAN_ELEMENT_THEORY = SGP/SGP4

EPOCH          = 2025-10-28T12:43:34.447584
MEAN_MOTION    = 14.92186223
ECCENTRICITY   = .00110074
INCLINATION    = 97.8240
RA_OF_ASC_NODE = 28.5233
ARG_OF_PERICENTER = 144.1377
MEAN_ANOMALY   = 216.0583

EPHEMERIS_TYPE = 0
CLASSIFICATION_TYPE = U
NORAD_CAT_ID   = 270138
ELEMENT_SET_NO = 999
REV_AT_EPOCH   = 32046
BSTAR          = .60193195E-3
MEAN_MOTION_DOT = .6082E-4
MEAN_MOTION_DDOT = 0

CCSDS_OMM_VERS = 2.0
CREATION_DATE  = 
ORIGINATOR     = 

OBJECT_NAME    = UNKNOWN
OBJECT_ID      = 
CENTER_NAME    = EARTH
REF_FRAME      = TEME
TIME_SYSTEM    = UTC
MEAN_ELEMENT_THEORY = SGP/SGP4

EPOCH          = 2025-11-01T13:04:36.564960
MEAN_MOTION    = 12.51021009
ECCENTRICITY   = .07862452
INCLINATION    = 99.4352
RA_OF_ASC_NODE = 48.8702
ARG_OF_PERICENTER = 159.8894
MEAN_ANOMALY   = 203.5087

EPHEMERIS_TYPE = 0
CLASSIFICATION_TYPE = U
NORAD_CAT_ID   = 270140
ELEMENT_SET_NO = 999
REV_AT_EPOCH   = 26993
BSTAR          = .28464653E-2
MEAN_MOTION_DOT = .1347E-4
MEAN_MOTION_DDOT = 0

CCSDS_OMM_VERS = 2.0
CREATION_DATE  = 
ORIGINATOR     = 

OBJECT_NAME    = UNKNOWN
OBJECT_ID      = 
CENTER_NAME    = EARTH
REF_FRAME      = TEME
TIME_SYSTEM    = UTC
MEAN_ELEMENT_THEORY = SGP/SGP4

EPOCH          = 2025-10-25T21:26:03.044256
MEAN_MOTION    = 13.68162945
ECCENTRICITY   = .00438433
INCLINATION    = 99.2710
RA_OF_ASC_NODE = 167.1481
ARG_OF_PERICENTER = 343.7072
MEAN_ANOMALY   = 16.2662

EPHEMERIS_TYPE = 0
CLASSIFICATION_TYPE = U
NORAD_CAT_ID   = 270143
ELEMENT_SET_NO = 999
REV_AT_EPOCH   = 29528
BSTAR          = .38481843E-3
MEAN_MOTION_DOT = .288E-5
MEAN_MOTION_DDOT = 0

CCSDS_OMM_VERS = 2.0
CREATION_DATE  = 
ORIGINATOR     = 

OBJECT_NAME    = UNKNOWN
OBJECT_ID      = 
CENTER_NAME    = EARTH
REF_FRAME      = TEME
TIME_SYSTEM    = UTC
MEAN_ELEMENT_THEORY = SGP/SGP4

EPOCH          = 2025-10-30T01:20:02.659776
MEAN_MOTION    = 11.70072495
ECCENTRICITY   = .04866007
INCLINATION    = 102.5437
RA_OF_ASC_NODE = 234.4577
ARG_OF_PERICENTER = 247.3251
MEAN_ANOMALY   = 107.5632

EPHEMERIS_TYPE = 0
CLASSIFICATION_TYPE = U
NORAD_CAT_ID   = 270145
ELEMENT_SET_NO = 999
REV_AT_EPOCH   = 1276
BSTAR          = -.37342275E-1
MEAN_MOTION_DOT = -.2891E-4
MEAN_MOTION_DDOT = 0

CCSDS_OMM_VERS = 2.0
CREATION_DATE  = 
ORIGINATOR     = 

OBJECT_NAME    = UNKNOWN
OBJECT_ID      = 
CENTER_NAME    = EARTH
REF_FRAME      = TEME
TIME_SYSTEM    = UTC
MEAN_ELEMENT_THEORY = SGP/SGP4

EPOCH          = 2025-10-26T12:31:59.591136
MEAN_MOTION    = 11.60471317
ECCENTRICITY   = .04748411
INCLINATION    = 102.3834
RA_OF_ASC_NODE = 28.3465
ARG_OF_PERICENTER = 44.3236
MEAN_ANOMALY   = 319.4800

EPHEMERIS_TYPE = 0
CLASSIFICATION_TYPE = U
NORAD_CAT_ID   = 270147
ELEMENT_SET_NO = 999
REV_AT_EPOCH   = 1293
BSTAR          = -.37859409E-1
MEAN_MOTION_DOT = -.2551E-4
MEAN_MOTION_DDOT = 0

CCSDS_OMM_VERS = 2.0
CREATION_DATE  = 
ORIGINATOR     = 

OBJECT_NAME    = UNKNOWN
OBJECT_ID      = 
CENTER_NAME    = EARTH
REF_FRAME      = TEME
TIME_SYSTEM    = UTC
MEAN_ELEMENT_THEORY = SGP/SGP4

EPOCH          = 2025-11-01T10:03:09.435744
MEAN_MOTION    = 13.05989819
ECCENTRICITY   = .00264657
INCLINATION    = 90.3074
RA_OF_ASC_NODE = 9.2142
ARG_OF_PERICENTER = 326.2482
MEAN_ANOMALY   = 33.6957

EPHEMERIS_TYPE = 0
CLASSIFICATION_TYPE = U
NORAD_CAT_ID   = 270149
ELEMENT_SET_NO = 999
REV_AT_EPOCH   = 28163
BSTAR          = .2765233E-2
MEAN_MOTION_DOT = .915E-5
MEAN_MOTION_DDOT = 0

CCSDS_OMM_VERS = 2.0
CREATION_DATE  = 
ORIGINATOR     = 

OBJECT_NAME    = UNKNOWN
OBJECT_ID      = 
CENTER_NAME    = EARTH
REF_FRAME      = TEME
TIME_SYSTEM    = UTC
MEAN_ELEMENT_THEORY = SGP/SGP4

EPOCH          = 2025-11-01T16:41:23.344512
MEAN_MOTION    = 12.98882297
ECCENTRICITY   = .00390199
INCLINATION    = 90.3088
RA_OF_ASC_NODE = 37.0609
ARG_OF_PERICENTER = 223.3318
MEAN_ANOMALY   = 136.4734

EPHEMERIS_TYPE = 0
CLASSIFICATION_TYPE = U
NORAD_CAT_ID   = 270152
ELEMENT_SET_NO = 999
REV_AT_EPOCH   = 28107
BSTAR          = .18611482E-2
MEAN_MOTION_DOT = .56E-5
MEAN_MOTION_DDOT = 0

CCSDS_OMM_VERS = 2.0
CREATION_DATE  = 
ORIGINATOR     = 

OBJECT_NAME    = UNKNOWN
OBJECT_ID      = 
CENTER_NAME    = EARTH
REF_FRAME      = TEME
TIME_SYSTEM    = UTC
MEAN_ELEMENT_THEORY = SGP/SGP4

EPOCH          = 2025-10-31T21:27:58.654368
MEAN_MOTION    = 12.30191860
ECCENTRICITY   = .07270412
INCLINATION    = 83.2197
RA_OF_ASC_NODE = 182.3095
ARG_OF_PERICENTER = 117.2535
MEAN_ANOMALY   = 250.4501

EPHEMERIS_TYPE = 0
CLASSIFICATION_TYPE = U
NORAD_CAT_ID   = 270153
ELEMENT_SET_NO = 999
REV_AT_EPOCH   = 26571
BSTAR          = .68788268E-2
MEAN_MOTION_DOT = .1972E-4
MEAN_MOTION_DDOT = 0

CCSDS_OMM_VERS = 2.0
CREATION_DATE  = 
ORIGINATOR     = 

OBJECT_NAME    = UNKNOWN
OBJECT_ID      = 
CENTER_NAME    = EARTH
REF_FRAME      = TEME
TIME_SYSTEM    = UTC
MEAN_ELEMENT_THEORY = SGP/SGP4

EPOCH          = 2025-10-29T10:15:59.567328
MEAN_MOTION    = 12.96211394
ECCENTRICITY   = .00321477
INCLINATION    = 90.2464
RA_OF_ASC_NODE = 7.9120
ARG_OF_PERICENTER = 43.3124
MEAN_ANOMALY   = 317.0515

EPHEMERIS_TYPE = 0
CLASSIFICATION_TYPE = U
NORAD_CAT_ID   = 270154
ELEMENT_SET_NO = 999
REV_AT_EPOCH   = 27984
BSTAR          = .63240852E-3
MEAN_MOTION_DOT = .188E-5
MEAN_MOTION_DDOT = 0

CCSDS_OMM_VERS = 2.0
CREATION_DATE  = 
ORIGINATOR     = 

OBJECT_NAME    = UNKNOWN
OBJECT_ID      = 
CENTER_NAME    = EARTH
REF_FRAME      = TEME
TIME_SYSTEM    = UTC
MEAN_ELEMENT_THEORY = SGP/SGP4

EPOCH          = 2025-10-27T07:26:41.580672
MEAN_MOTION    = 12.54825261
ECCENTRICITY   = .00607863
INCLINATION    = 101.9160
RA_OF_ASC_NODE = 158.4145
ARG_OF_PERICENTER = 147.9890
MEAN_ANOMALY   = 212.4897

EPHEMERIS_TYPE = 0
CLASSIFICATION_TYPE = U
NORAD_CAT_ID   = 270155
ELEMENT_SET_NO = 999
REV_AT_EPOCH   = 27093
BSTAR          = .34169653E-2
MEAN_MOTION_DOT = .512E-5
MEAN_MOTION_DDOT = 0

